IRIDIUM 155             
1 43573U 18061E   22088.41290487  .00000213  00000+0  68911-4 0  9997
2 43573  86.4002 340.6113 0002134  74.5643 285.5788 14.34218713192516
IRIDIUM 154             
1 43574U 18061F   22088.60316747  .00000201  00000+0  64655-4 0  9995
2 43574  86.4005 340.5916 0002264  90.5633 269.5822 14.34220911192593
IRIDIUM 163             
1 43575U 18061G   22088.44461540  .00000209  00000+0  67493-4 0  9991
2 43575  86.4002 340.6203 0001782  92.9402 267.1997 14.34217039192544
IRIDIUM 156             
1 43576U 18061H   22088.41923118  .00000211  00000+0  68343-4 0  9991
2 43576  86.4003 340.6362 0001811  81.0656 279.0745 14.34220800192537
IRIDIUM 164             
1 43577U 18061J   22088.40022594  .00000209  00000+0  67431-4 0  9993
2 43577  86.4003 340.6610 0002127  91.9807 268.1632 14.34216871192574
IRIDIUM 159             
1 43578U 18061K   22088.43827143  .00000206  00000+0  66360-4 0  9997
2 43578  86.4002 340.6142 0002195  89.8026 270.3421 14.34216547192546
IRIDIUM 180             
1 43922U 19002A   22088.57729100  .00000074  00000+0  19288-4 0  9995
2 43922  86.3915 277.3917 0002370 108.3987 251.7466 14.34217696168175
IRIDIUM 176             
1 43923U 19002B   22088.60285926  .00000267  00000+0  38369-4 0  9998
2 43923  86.6050 277.4156 0002383  87.4788 272.6702 14.72252053172588
IRIDIUM 168             
1 43924U 19002C   22088.57093939  .00000070  00000+0  18039-4 0  9990
2 43924  86.3917 277.4283 0002277  96.1507 263.9949 14.34218461168154
IRIDIUM 173             
1 43925U 19002D   22088.55825433  .00000068  00000+0  17132-4 0  9991
2 43925  86.3915 277.3852 0002169  95.6905 264.4538 14.34218369168135
IRIDIUM 169             
1 43926U 19002E   22088.59185601  .00000261  00000+0  78772-4 0  9994
2 43926  86.4200 308.9989 0005697  35.9094 324.2486 14.38608407168734
IRIDIUM 172             
1 43927U 19002F   22088.55192081  .00000071  00000+0  18418-4 0  9991
2 43927  86.3914 277.3911 0002231  98.3645 261.7804 14.34218360168141
IRIDIUM 175             
1 43928U 19002G   22088.59665927  .00000269  00000+0  38681-4 0  9993
2 43928  86.6052 277.2461 0002377  99.7679 260.3806 14.72251720172578
IRIDIUM 171             
1 43929U 19002H   22088.60264905  .00000035  00000+0  53304-5 0  9998
2 43929  86.3924 277.5052 0002289  95.3502 264.7955 14.34217290168145
IRIDIUM 170             
1 43930U 19002J   22088.54103081  .00000252  00000+0  36111-4 0  9997
2 43930  86.6050 277.4471 0002471  90.3610 269.7890 14.72260097172583
IRIDIUM 167             
1 43931U 19002K   22088.59630612  .00000069  00000+0  17508-4 0  9993
2 43931  86.3915 277.3812 0002367 102.4408 257.7053 14.34217130168146
